start=new Date('2021-12-12T00:00:00.000Z').valueOf();
sats=[{"ECCENTRICITY":"0.00011390","TLE_LINE2":"2 46173  53.0558  70.6089 0001139  85.9945 274.1174 15.06393673 72584","MEAN_ELEMENT_THEORY":"SGP4","BSTAR":"-0.00003349300000","TIME_SYSTEM":"UTC","REV_AT_EPOCH":"7258","MEAN_MOTION_DOT":"-0.00000780","GP_ID":"191521210","FILE":"3237650","EPHEMERIS_TYPE":"0","EPOCH":"2021-12-11T15:11:09.573216","TLE_LINE1":"1 46173U 20057BJ  21345.63274969 -.00000780  00000-0 -33493-4 0  9999","MEAN_MOTION_DDOT":"0.0000000000000","PERIOD":"95.593","REF_FRAME":"TEME","RCS_SIZE":"LARGE","ARG_OF_PERICENTER":"85.9945","INCLINATION":"53.0558","OBJECT_NAME":"STARLINK-1640","PERIAPSIS":"546.444","ELEMENT_SET_NO":"999","MEAN_MOTION":"15.06393673","OBJECT_ID":"2020-057BJ","CENTER_NAME":"EARTH","APOAPSIS":"548.022","DECAY_DATE":null,"SEMIMAJOR_AXIS":"6925.368","MEAN_ANOMALY":"274.1174","OBJECT_TYPE":"PAYLOAD","COUNTRY_CODE":"US","NORAD_CAT_ID":"46173","CLASSIFICATION_TYPE":"U","RA_OF_ASC_NODE":"70.6089","LAUNCH_DATE":"2020-08-18","SITE":"AFETR"},{"EPOCH":"2021-12-11T15:21:45.993024","EPHEMERIS_TYPE":"0","FILE":"3237650","GP_ID":"191520216","MEAN_MOTION_DOT":"0.00000968","REV_AT_EPOCH":"7258","TLE_LINE2":"2 46174  53.0561  70.5696 0001244  90.2950 269.8181 15.06404521 72588","ECCENTRICITY":"0.00012440","TIME_SYSTEM":"UTC","BSTAR":"0.00008385400000","MEAN_ELEMENT_THEORY":"SGP4","OBJECT_NAME":"STARLINK-1641","PERIAPSIS":"546.338","ARG_OF_PERICENTER":"90.2950","RCS_SIZE":"LARGE","INCLINATION":"53.0561","PERIOD":"95.592","MEAN_MOTION_DDOT":"0.0000000000000","REF_FRAME":"TEME","TLE_LINE1":"1 46174U 20057BK  21345.64011566  .00000968  00000-0  83854-4 0  9995","MEAN_ANOMALY":"269.8181","DECAY_DATE":null,"APOAPSIS":"548.061","SEMIMAJOR_AXIS":"6925.335","ELEMENT_SET_NO":"999","MEAN_MOTION":"15.06404521","CENTER_NAME":"EARTH","OBJECT_ID":"2020-057BK","SITE":"AFETR","LAUNCH_DATE":"2020-08-18","RA_OF_ASC_NODE":"70.5696","CLASSIFICATION_TYPE":"U","NORAD_CAT_ID":"46174","COUNTRY_CODE":"US","OBJECT_TYPE":"PAYLOAD"},{"MEAN_MOTION_DOT":"0.00002066","REV_AT_EPOCH":"7211","MEAN_ELEMENT_THEORY":"SGP4","BSTAR":"0.00015756000000","TIME_SYSTEM":"UTC","ECCENTRICITY":"0.00011930","TLE_LINE2":"2 46325  53.0554  84.3334 0001193  84.4003 275.7122 15.06394883 72116","EPHEMERIS_TYPE":"0","FILE":"3237650","EPOCH":"2021-12-11T22:00:31.523328","GP_ID":"191522724","REF_FRAME":"TEME","MEAN_MOTION_DDOT":"0.0000000000000","PERIOD":"95.592","TLE_LINE1":"1 46325U 20062A   21345.91703152  .00002066  00000-0  15756-3 0  9994","PERIAPSIS":"546.403","OBJECT_NAME":"STARLINK-1734","INCLINATION":"53.0554","RCS_SIZE":"LARGE","ARG_OF_PERICENTER":"84.4003","OBJECT_ID":"2020-062A","CENTER_NAME":"EARTH","MEAN_MOTION":"15.06394883","ELEMENT_SET_NO":"999","MEAN_ANOMALY":"275.7122","SEMIMAJOR_AXIS":"6925.364","APOAPSIS":"548.055","DECAY_DATE":null,"NORAD_CAT_ID":"46325","OBJECT_TYPE":"PAYLOAD","COUNTRY_CODE":"US","LAUNCH_DATE":"2020-09-03","SITE":"AFETR","CLASSIFICATION_TYPE":"U","RA_OF_ASC_NODE":"84.3334"},{"MEAN_ANOMALY":"260.6461","DECAY_DATE":null,"APOAPSIS":"548.746","SEMIMAJOR_AXIS":"6925.330","MEAN_MOTION":"15.06406008","ELEMENT_SET_NO":"999","OBJECT_ID":"2020-062B","CENTER_NAME":"EARTH","SITE":"AFETR","LAUNCH_DATE":"2020-09-03","RA_OF_ASC_NODE":"129.7344","CLASSIFICATION_TYPE":"U","NORAD_CAT_ID":"46326","COUNTRY_CODE":"US","OBJECT_TYPE":"PAYLOAD","EPOCH":"2021-12-11T19:48:27.125280","EPHEMERIS_TYPE":"0","FILE":"3237650","GP_ID":"191522482","REV_AT_EPOCH":"7086","MEAN_MOTION_DOT":"0.00000665","TLE_LINE2":"2 46326  53.0532 129.7344 0002239  99.4781 260.6461 15.06406008 70861","ECCENTRICITY":"0.00022390","TIME_SYSTEM":"UTC","MEAN_ELEMENT_THEORY":"SGP4","BSTAR":"0.00006353200000","OBJECT_NAME":"STARLINK-1654","PERIAPSIS":"545.645","ARG_OF_PERICENTER":"99.4781","RCS_SIZE":"LARGE","INCLINATION":"53.0532","PERIOD":"95.592","MEAN_MOTION_DDOT":"0.0000000000000","REF_FRAME":"TEME","TLE_LINE1":"1 46326U 20062B   21345.82531395  .00000665  00000-0  63532-4 0  9992"},{"REV_AT_EPOCH":"7086","MEAN_MOTION_DOT":"0.00000439","TIME_SYSTEM":"UTC","MEAN_ELEMENT_THEORY":"SGP4","BSTAR":"0.00004837400000","TLE_LINE2":"2 46327  53.0546 129.5465 0001793  94.3161 265.8033 15.06393793 70867","ECCENTRICITY":"0.00017930","EPOCH":"2021-12-11T20:53:32.481312","FILE":"3237650","EPHEMERIS_TYPE":"0","GP_ID":"191521723","REF_FRAME":"TEME","PERIOD":"95.593","MEAN_MOTION_DDOT":"0.0000000000000","TLE_LINE1":"1 46327U 20062C   21345.87051483  .00000439  00000-0  48374-4 0  9999","PERIAPSIS":"545.991","OBJECT_NAME":"STARLINK-1673","INCLINATION":"53.0546","ARG_OF_PERICENTER":"94.3161","RCS_SIZE":"LARGE","OBJECT_ID":"2020-062C","CENTER_NAME":"EARTH","ELEMENT_SET_NO":"999","MEAN_MOTION":"15.06393793","MEAN_ANOMALY":"265.8033","SEMIMAJOR_AXIS":"6925.368","DECAY_DATE":null,"APOAPSIS":"548.474","NORAD_CAT_ID":"46327","COUNTRY_CODE":"US","OBJECT_TYPE":"PAYLOAD","SITE":"AFETR","LAUNCH_DATE":"2020-09-03","RA_OF_ASC_NODE":"129.5465","CLASSIFICATION_TYPE":"U"},{"GP_ID":"191521973","EPOCH":"2021-12-11T15:37:42.427200","FILE":"3237650","EPHEMERIS_TYPE":"0","TLE_LINE2":"2 46328  53.0549 110.5233 0001462  98.6017 261.5138 15.06397253 71117","ECCENTRICITY":"0.00014620","TIME_SYSTEM":"UTC","MEAN_ELEMENT_THEORY":"SGP4","BSTAR":"0.00008993000000","REV_AT_EPOCH":"7111","MEAN_MOTION_DOT":"0.00001058","ARG_OF_PERICENTER":"98.6017","RCS_SIZE":"LARGE","INCLINATION":"53.0549","OBJECT_NAME":"STARLINK-1686","PERIAPSIS":"546.209","TLE_LINE1":"1 46328U 20062D   21345.65118550  .00001058  00000-0  89930-4 0  9996","PERIOD":"95.592","MEAN_MOTION_DDOT":"0.0000000000000","REF_FRAME":"TEME","DECAY_DATE":null,"APOAPSIS":"548.234","SEMIMAJOR_AXIS":"6925.357","MEAN_ANOMALY":"261.5138","ELEMENT_SET_NO":"999","MEAN_MOTION":"15.06397253","OBJECT_ID":"2020-062D","CENTER_NAME":"EARTH","RA_OF_ASC_NODE":"110.5233","CLASSIFICATION_TYPE":"U","SITE":"AFETR","LAUNCH_DATE":"2020-09-03","COUNTRY_CODE":"US","OBJECT_TYPE":"PAYLOAD","NORAD_CAT_ID":"46328"},{"NORAD_CAT_ID":"46329","COUNTRY_CODE":"US","OBJECT_TYPE":"PAYLOAD","SITE":"AFETR","LAUNCH_DATE":"2020-09-03","RA_OF_ASC_NODE":"110.6657","CLASSIFICATION_TYPE":"U","MEAN_MOTION":"15.06406432","ELEMENT_SET_NO":"999","OBJECT_ID":"2020-062E","CENTER_NAME":"EARTH","MEAN_ANOMALY":"269.8517","DECAY_DATE":null,"APOAPSIS":"548.389","SEMIMAJOR_AXIS":"6925.329","PERIOD":"95.592","MEAN_MOTION_DDOT":"0.0000000000000","REF_FRAME":"TEME","TLE_LINE1":"1 46329U 20062E   21345.61799859  .00000926  00000-0  81034-4 0  9990","OBJECT_NAME":"STARLINK-1695","PERIAPSIS":"545.999","ARG_OF_PERICENTER":"90.2670","RCS_SIZE":"LARGE","INCLINATION":"53.0547","REV_AT_EPOCH":"7110","MEAN_MOTION_DOT":"0.00000926","TLE_LINE2":"2 46329  53.0547 110.6657 0001726  90.2670 269.8517 15.06406432 71104","ECCENTRICITY":"0.00017260","TIME_SYSTEM":"UTC","BSTAR":"0.00008103400000","MEAN_ELEMENT_THEORY":"SGP4","EPOCH":"2021-12-11T14:49:55.078176","FILE":"3237650","EPHEMERIS_TYPE":"0","GP_ID":"191522232"},{"NORAD_CAT_ID":"46330","COUNTRY_CODE":"US","OBJECT_TYPE":"PAYLOAD","SITE":"AFETR","LAUNCH_DATE":"2020-09-03","RA_OF_ASC_NODE":"110.1229","CLASSIFICATION_TYPE":"U","ELEMENT_SET_NO":"999","MEAN_MOTION":"15.06402116","OBJECT_ID":"2020-062F","CENTER_NAME":"EARTH","MEAN_ANOMALY":"265.2879","DECAY_DATE":null,"APOAPSIS":"548.416","SEMIMAJOR_AXIS":"6925.342","PERIOD":"95.592","MEAN_MOTION_DDOT":"0.0000000000000","REF_FRAME":"TEME","TLE_LINE1":"1 46330U 20062F   21345.73963613  .00000767  00000-0  70399-4 0  9991","OBJECT_NAME":"STARLINK-1710","PERIAPSIS":"545.998","ARG_OF_PERICENTER":"94.8309","RCS_SIZE":"LARGE","INCLINATION":"53.0541","MEAN_MOTION_DOT":"0.00000767","REV_AT_EPOCH":"7113","TLE_LINE2":"2 46330  53.0541 110.1229 0001746  94.8309 265.2879 15.06402116 71130","ECCENTRICITY":"0.00017460","TIME_SYSTEM":"UTC","MEAN_ELEMENT_THEORY":"SGP4","BSTAR":"0.00007039900000","EPOCH":"2021-12-11T17:45:04.561632","FILE":"3237650","EPHEMERIS_TYPE":"0","GP_ID":"191522975"},{"MEAN_MOTION":"15.06389866","ELEMENT_SET_NO":"999","OBJECT_ID":"2020-062G","CENTER_NAME":"EARTH","MEAN_ANOMALY":"259.4021","APOAPSIS":"548.609","DECAY_DATE":null,"SEMIMAJOR_AXIS":"6925.380","NORAD_CAT_ID":"46331","OBJECT_TYPE":"PAYLOAD","COUNTRY_CODE":"US","LAUNCH_DATE":"2020-09-03","SITE":"AFETR","CLASSIFICATION_TYPE":"U","RA_OF_ASC_NODE":"129.6813","REV_AT_EPOCH":"7086","MEAN_MOTION_DOT":"0.00000467","ECCENTRICITY":"0.00019700","TLE_LINE2":"2 46331  53.0550 129.6813 0001970 100.7190 259.4021 15.06389866 70868","MEAN_ELEMENT_THEORY":"SGP4","BSTAR":"0.00005025600000","TIME_SYSTEM":"UTC","FILE":"3237650","EPHEMERIS_TYPE":"0","EPOCH":"2021-12-11T20:11:03.553440","GP_ID":"191521231","MEAN_MOTION_DDOT":"0.0000000000000","PERIOD":"95.593","REF_FRAME":"TEME","TLE_LINE1":"1 46331U 20062G   21345.84101335  .00000467  00000-0  50256-4 0  9996","OBJECT_NAME":"STARLINK-1719","PERIAPSIS":"545.880","RCS_SIZE":"LARGE","ARG_OF_PERICENTER":"100.7190","INCLINATION":"53.0550"},{"SITE":"AFETR","LAUNCH_DATE":"2020-09-03","RA_OF_ASC_NODE":"129.9125","CLASSIFICATION_TYPE":"U","NORAD_CAT_ID":"46332","COUNTRY_CODE":"US","OBJECT_TYPE":"PAYLOAD","MEAN_ANOMALY":"270.0079","SEMIMAJOR_AXIS":"6925.370","DECAY_DATE":null,"APOAPSIS":"548.513","OBJECT_ID":"2020-062H","CENTER_NAME":"EARTH","ELEMENT_SET_NO":"999","MEAN_MOTION":"15.06393117","PERIAPSIS":"545.956","OBJECT_NAME":"STARLINK-1721","INCLINATION":"53.0550","ARG_OF_PERICENTER":"90.1122","RCS_SIZE":"LARGE","REF_FRAME":"TEME","PERIOD":"95.593","MEAN_MOTION_DDOT":"0.0000000000000","TLE_LINE1":"1 46332U 20062H   21345.78575025  .00000655  00000-0  62898-4 0  9995","EPOCH":"2021-12-11T18:51:28.821600","EPHEMERIS_TYPE":"0","FILE":"3237650","GP_ID":"191521481","MEAN_MOTION_DOT":"0.00000655","REV_AT_EPOCH":"7085","TIME_SYSTEM":"UTC","BSTAR":"0.00006289800000","MEAN_ELEMENT_THEORY":"SGP4","TLE_LINE2":"2 46332  53.0550 129.9125 0001846  90.1122 270.0079 15.06393117 70852","ECCENTRICITY":"0.00018460"}];
